[{"OBJECT_NAME":"POLYITAN-1","OBJECT_ID":"2014-033AJ","EPOCH":"2026-03-09T22:27:50.258304","MEAN_MOTION":15.29568085,"ECCENTRICITY":0.00093607,"INCLINATION":98.1053,"RA_OF_ASC_NODE":86.0432,"ARG_OF_PERICENTER":127.248,"MEAN_ANOMALY":232.9614,"EPHEMERIS_TYPE":0,"CLASSIFICATION_TYPE":"U","NORAD_CAT_ID":40042,"ELEMENT_SET_NO":999,"REV_AT_EPOCH":63840,"BSTAR":0.00083772474,"MEAN_MOTION_DOT":0.00024003,"MEAN_MOTION_DDOT":0},{"OBJECT_NAME":"STARLINK-30477","OBJECT_ID":"2023-146X","EPOCH":"2026-03-09T01:38:18.250656","MEAN_MOTION":15.27558432,"ECCENTRICITY":0.0001519,"INCLINATION":42.9994,"RA_OF_ASC_NODE":314.0913,"ARG_OF_PERICENTER":268.5622,"MEAN_ANOMALY":91.5056,"EPHEMERIS_TYPE":0,"CLASSIFICATION_TYPE":"U","NORAD_CAT_ID":57912,"ELEMENT_SET_NO":999,"REV_AT_EPOCH":13700,"BSTAR":-0.00024319354,"MEAN_MOTION_DOT":-6.944e-5,"MEAN_MOTION_DDOT":0}]
